<?xml version="1.0" encoding="UTF-8"?>
<ndm xmlns:xsi="http://www.w3.org/2001/XMLSchema-instance" xsi:noNamespaceSchemaLocation="https://sanaregistry.org/r/ndmxml_unqualified/ndmxml-2.0.0-master-2.0.xsd">
<omm id="CCSDS_OMM_VERS" version="2.0">
<header><CREATION_DATE/><ORIGINATOR/></header><body><segment><metadata><OBJECT_NAME>IRIDIUM 7</OBJECT_NAME><OBJECT_ID>1997-020B</OBJECT_ID><CENTER_NAME>EARTH</CENTER_NAME><REF_FRAME>TEME</REF_FRAME><TIME_SYSTEM>UTC</TIME_SYSTEM><MEAN_ELEMENT_THEORY>SGP4</MEAN_ELEMENT_THEORY></metadata><data><meanElements><EPOCH>2025-03-20T21:13:16.584672</EPOCH><MEAN_MOTION>14.35829868</MEAN_MOTION><ECCENTRICITY>.0002263</ECCENTRICITY><INCLINATION>86.3996</INCLINATION><RA_OF_ASC_NODE>213.8652</RA_OF_ASC_NODE><ARG_OF_PERICENTER>88.6308</ARG_OF_PERICENTER><MEAN_ANOMALY>271.5148</MEAN_ANOMALY></meanElements><tleParameters><EPHEMERIS_TYPE>0</EPHEMERIS_TYPE><CLASSIFICATION_TYPE>U</CLASSIFICATION_TYPE><NORAD_CAT_ID>24793</NORAD_CAT_ID><ELEMENT_SET_NO>999</ELEMENT_SET_NO><REV_AT_EPOCH>45944</REV_AT_EPOCH><BSTAR>.45989E-3</BSTAR><MEAN_MOTION_DOT>.135E-4</MEAN_MOTION_DOT><MEAN_MOTION_DDOT>0</MEAN_MOTION_DDOT></tleParameters></data></segment></body></omm>
<omm id="CCSDS_OMM_VERS" version="2.0">
<header><CREATION_DATE/><ORIGINATOR/></header><body><segment><metadata><OBJECT_NAME>IRIDIUM 5</OBJECT_NAME><OBJECT_ID>1997-020D</OBJECT_ID><CENTER_NAME>EARTH</CENTER_NAME><REF_FRAME>TEME</REF_FRAME><TIME_SYSTEM>UTC</TIME_SYSTEM><MEAN_ELEMENT_THEORY>SGP4</MEAN_ELEMENT_THEORY></metadata><data><meanElements><EPOCH>2025-03-20T14:57:29.032416</EPOCH><MEAN_MOTION>14.93155891</MEAN_MOTION><ECCENTRICITY>.0114075</ECCENTRICITY><INCLINATION>86.3879</INCLINATION><RA_OF_ASC_NODE>124.5574</RA_OF_ASC_NODE><ARG_OF_PERICENTER>96.2089</ARG_OF_PERICENTER><MEAN_ANOMALY>265.2149</MEAN_ANOMALY></meanElements><tleParameters><EPHEMERIS_TYPE>0</EPHEMERIS_TYPE><CLASSIFICATION_TYPE>U</CLASSIFICATION_TYPE><NORAD_CAT_ID>24795</NORAD_CAT_ID><ELEMENT_SET_NO>999</ELEMENT_SET_NO><REV_AT_EPOCH>47224</REV_AT_EPOCH><BSTAR>.78017E-3</BSTAR><MEAN_MOTION_DOT>.9285E-4</MEAN_MOTION_DOT><MEAN_MOTION_DDOT>0</MEAN_MOTION_DDOT></tleParameters></data></segment></body></omm>
<omm id="CCSDS_OMM_VERS" version="2.0">
<header><CREATION_DATE/><ORIGINATOR/></header><body><segment><metadata><OBJECT_NAME>IRIDIUM 4</OBJECT_NAME><OBJECT_ID>1997-020E</OBJECT_ID><CENTER_NAME>EARTH</CENTER_NAME><REF_FRAME>TEME</REF_FRAME><TIME_SYSTEM>UTC</TIME_SYSTEM><MEAN_ELEMENT_THEORY>SGP4</MEAN_ELEMENT_THEORY></metadata><data><meanElements><EPOCH>2025-03-21T09:51:30.939264</EPOCH><MEAN_MOTION>14.36740248</MEAN_MOTION><ECCENTRICITY>.000221</ECCENTRICITY><INCLINATION>86.4000</INCLINATION><RA_OF_ASC_NODE>210.5820</RA_OF_ASC_NODE><ARG_OF_PERICENTER>94.6344</ARG_OF_PERICENTER><MEAN_ANOMALY>265.5105</MEAN_ANOMALY></meanElements><tleParameters><EPHEMERIS_TYPE>0</EPHEMERIS_TYPE><CLASSIFICATION_TYPE>U</CLASSIFICATION_TYPE><NORAD_CAT_ID>24796</NORAD_CAT_ID><ELEMENT_SET_NO>999</ELEMENT_SET_NO><REV_AT_EPOCH>45989</REV_AT_EPOCH><BSTAR>.46758E-3</BSTAR><MEAN_MOTION_DOT>.1397E-4</MEAN_MOTION_DOT><MEAN_MOTION_DDOT>0</MEAN_MOTION_DDOT></tleParameters></data></segment></body></omm>
<omm id="CCSDS_OMM_VERS" version="2.0">
<header><CREATION_DATE/><ORIGINATOR/></header><body><segment><metadata><OBJECT_NAME>IRIDIUM 914</OBJECT_NAME><OBJECT_ID>1997-030A</OBJECT_ID><CENTER_NAME>EARTH</CENTER_NAME><REF_FRAME>TEME</REF_FRAME><TIME_SYSTEM>UTC</TIME_SYSTEM><MEAN_ELEMENT_THEORY>SGP4</MEAN_ELEMENT_THEORY></metadata><data><meanElements><EPOCH>2025-03-20T19:48:06.995808</EPOCH><MEAN_MOTION>14.40738454</MEAN_MOTION><ECCENTRICITY>.0003262</ECCENTRICITY><INCLINATION>86.3959</INCLINATION><RA_OF_ASC_NODE>219.6920</RA_OF_ASC_NODE><ARG_OF_PERICENTER>118.6939</ARG_OF_PERICENTER><MEAN_ANOMALY>241.4589</MEAN_ANOMALY></meanElements><tleParameters><EPHEMERIS_TYPE>0</EPHEMERIS_TYPE><CLASSIFICATION_TYPE>U</CLASSIFICATION_TYPE><NORAD_CAT_ID>24836</NORAD_CAT_ID><ELEMENT_SET_NO>999</ELEMENT_SET_NO><REV_AT_EPOCH>59440</REV_AT_EPOCH><BSTAR>.52035E-3</BSTAR><MEAN_MOTION_DOT>.1682E-4</MEAN_MOTION_DOT><MEAN_MOTION_DDOT>0</MEAN_MOTION_DDOT></tleParameters></data></segment></body></omm>
<omm id="CCSDS_OMM_VERS" version="2.0">
<header><CREATION_DATE/><ORIGINATOR/></header><body><segment><metadata><OBJECT_NAME>IRIDIUM 16</OBJECT_NAME><OBJECT_ID>1997-030F</OBJECT_ID><CENTER_NAME>EARTH</CENTER_NAME><REF_FRAME>TEME</REF_FRAME><TIME_SYSTEM>UTC</TIME_SYSTEM><MEAN_ELEMENT_THEORY>SGP4</MEAN_ELEMENT_THEORY></metadata><data><meanElements><EPOCH>2025-03-20T22:20:27.282048</EPOCH><MEAN_MOTION>14.38584546</MEAN_MOTION><ECCENTRICITY>.0002883</ECCENTRICITY><INCLINATION>86.4003</INCLINATION><RA_OF_ASC_NODE>242.3330</RA_OF_ASC_NODE><ARG_OF_PERICENTER>40.9396</ARG_OF_PERICENTER><MEAN_ANOMALY>319.2018</MEAN_ANOMALY></meanElements><tleParameters><EPHEMERIS_TYPE>0</EPHEMERIS_TYPE><CLASSIFICATION_TYPE>U</CLASSIFICATION_TYPE><NORAD_CAT_ID>24841</NORAD_CAT_ID><ELEMENT_SET_NO>999</ELEMENT_SET_NO><REV_AT_EPOCH>45457</REV_AT_EPOCH><BSTAR>.47214E-3</BSTAR><MEAN_MOTION_DOT>.1463E-4</MEAN_MOTION_DOT><MEAN_MOTION_DDOT>0</MEAN_MOTION_DDOT></tleParameters></data></segment></body></omm>
<omm id="CCSDS_OMM_VERS" version="2.0">
<header><CREATION_DATE/><ORIGINATOR/></header><body><segment><metadata><OBJECT_NAME>IRIDIUM 911</OBJECT_NAME><OBJECT_ID>1997-030G</OBJECT_ID><CENTER_NAME>EARTH</CENTER_NAME><REF_FRAME>TEME</REF_FRAME><TIME_SYSTEM>UTC</TIME_SYSTEM><MEAN_ELEMENT_THEORY>SGP4</MEAN_ELEMENT_THEORY></metadata><data><meanElements><EPOCH>2025-03-21T01:13:30.653472</EPOCH><MEAN_MOTION>14.47463997</MEAN_MOTION><ECCENTRICITY>.0015348</ECCENTRICITY><INCLINATION>86.4432</INCLINATION><RA_OF_ASC_NODE>241.1433</RA_OF_ASC_NODE><ARG_OF_PERICENTER>38.7005</ARG_OF_PERICENTER><MEAN_ANOMALY>321.5295</MEAN_ANOMALY></meanElements><tleParameters><EPHEMERIS_TYPE>0</EPHEMERIS_TYPE><CLASSIFICATION_TYPE>U</CLASSIFICATION_TYPE><NORAD_CAT_ID>24842</NORAD_CAT_ID><ELEMENT_SET_NO>999</ELEMENT_SET_NO><REV_AT_EPOCH>46231</REV_AT_EPOCH><BSTAR>.54974E-3</BSTAR><MEAN_MOTION_DOT>.204E-4</MEAN_MOTION_DOT><MEAN_MOTION_DDOT>0</MEAN_MOTION_DDOT></tleParameters></data></segment></body></omm>
<omm id="CCSDS_OMM_VERS" version="2.0">
<header><CREATION_DATE/><ORIGINATOR/></header><body><segment><metadata><OBJECT_NAME>IRIDIUM 17</OBJECT_NAME><OBJECT_ID>1997-034B</OBJECT_ID><CENTER_NAME>EARTH</CENTER_NAME><REF_FRAME>TEME</REF_FRAME><TIME_SYSTEM>UTC</TIME_SYSTEM><MEAN_ELEMENT_THEORY>SGP4</MEAN_ELEMENT_THEORY></metadata><data><meanElements><EPOCH>2025-03-20T15:42:47.680128</EPOCH><MEAN_MOTION>14.37693436</MEAN_MOTION><ECCENTRICITY>.0001227</ECCENTRICITY><INCLINATION>86.3895</INCLINATION><RA_OF_ASC_NODE>271.9981</RA_OF_ASC_NODE><ARG_OF_PERICENTER>37.5686</ARG_OF_PERICENTER><MEAN_ANOMALY>322.5597</MEAN_ANOMALY></meanElements><tleParameters><EPHEMERIS_TYPE>0</EPHEMERIS_TYPE><CLASSIFICATION_TYPE>U</CLASSIFICATION_TYPE><NORAD_CAT_ID>24870</NORAD_CAT_ID><ELEMENT_SET_NO>999</ELEMENT_SET_NO><REV_AT_EPOCH>45086</REV_AT_EPOCH><BSTAR>.411E-3</BSTAR><MEAN_MOTION_DOT>.1254E-4</MEAN_MOTION_DOT><MEAN_MOTION_DDOT>0</MEAN_MOTION_DDOT></tleParameters></data></segment></body></omm>
<omm id="CCSDS_OMM_VERS" version="2.0">
<header><CREATION_DATE/><ORIGINATOR/></header><body><segment><metadata><OBJECT_NAME>IRIDIUM 920</OBJECT_NAME><OBJECT_ID>1997-034C</OBJECT_ID><CENTER_NAME>EARTH</CENTER_NAME><REF_FRAME>TEME</REF_FRAME><TIME_SYSTEM>UTC</TIME_SYSTEM><MEAN_ELEMENT_THEORY>SGP4</MEAN_ELEMENT_THEORY></metadata><data><meanElements><EPOCH>2025-03-21T13:11:41.079264</EPOCH><MEAN_MOTION>14.41402204</MEAN_MOTION><ECCENTRICITY>.0012101</ECCENTRICITY><INCLINATION>86.3928</INCLINATION><RA_OF_ASC_NODE>251.0278</RA_OF_ASC_NODE><ARG_OF_PERICENTER>20.9563</ARG_OF_PERICENTER><MEAN_ANOMALY>339.2130</MEAN_ANOMALY></meanElements><tleParameters><EPHEMERIS_TYPE>0</EPHEMERIS_TYPE><CLASSIFICATION_TYPE>U</CLASSIFICATION_TYPE><NORAD_CAT_ID>24871</NORAD_CAT_ID><ELEMENT_SET_NO>999</ELEMENT_SET_NO><REV_AT_EPOCH>45421</REV_AT_EPOCH><BSTAR>.42005E-3</BSTAR><MEAN_MOTION_DOT>.1381E-4</MEAN_MOTION_DOT><MEAN_MOTION_DDOT>0</MEAN_MOTION_DDOT></tleParameters></data></segment></body></omm>

</ndm>
