IRIDIUM 7               
1 24793U 97020B   25079.88421973  .00001350  00000+0  45989-3 0  9994
2 24793  86.3996 213.8652 0002263  88.6308 271.5148 14.35829868459449
IRIDIUM 5               
1 24795U 97020D   25079.62325269  .00009285  00000+0  78017-3 0  9992
2 24795  86.3879 124.5574 0114075  96.2089 265.2149 14.93155891472244
IRIDIUM 4               
1 24796U 97020E   25080.41077476  .00001397  00000+0  46758-3 0  9999
2 24796  86.4000 210.5820 0002210  94.6344 265.5105 14.36740248459899
IRIDIUM 914             
1 24836U 97030A   25079.82508097  .00001682  00000+0  52035-3 0  9998
2 24836  86.3959 219.6920 0003262 118.6939 241.4589 14.40738454594409
IRIDIUM 16              
1 24841U 97030F   25079.93087132  .00001463  00000+0  47214-3 0  9998
2 24841  86.4003 242.3330 0002883  40.9396 319.2018 14.38584546454578
IRIDIUM 911             
1 24842U 97030G   25080.05104923  .00002040  00000+0  54974-3 0  9995
2 24842  86.4432 241.1433 0015348  38.7005 321.5295 14.47463997462318
IRIDIUM 17              
1 24870U 97034B   25079.65471852  .00001254  00000+0  41100-3 0  9995
2 24870  86.3895 271.9981 0001227  37.5686 322.5597 14.37693436450868
IRIDIUM 920             
1 24871U 97034C   25080.54978101  .00001381  00000+0  42005-3 0  9991
2 24871  86.3928 251.0278 0012101  20.9563 339.2130 14.41402204454214
